{
 "generated_at": "2026-07-16T07:22:15Z",
 "sources": [
  {
   "name": "CelesTrak",
   "url": "https://celestrak.org/NORAD/elements/",
   "license": "frei verfügbar; Attribution. Ursprünglich USSPACECOM/Space-Track."
  },
  {
   "name": "GCAT (J. McDowell, planet4589.org)",
   "url": "https://planet4589.org/space/gcat/",
   "license": "CC-BY 4.0"
  }
 ],
 "satellites": [
  {
   "norad": 54234,
   "name": "NOAA 21 (JPSS-2)",
   "intl": "2022-150A",
   "group": "weather",
   "gcat": {
    "class": "C",
    "category": "MET",
    "owner": "GSFC/NOAA",
    "state": "US"
   },
   "omm": {
    "OBJECT_NAME": "NOAA 21 (JPSS-2)",
    "OBJECT_ID": "2022-150A",
    "EPOCH": "2026-07-15T22:23:29.953248",
    "MEAN_MOTION": 14.19541138,
    "ECCENTRICITY": 0.00028385,
    "INCLINATION": 98.7059,
    "RA_OF_ASC_NODE": 135.2394,
    "ARG_OF_PERICENTER": 103.1874,
    "MEAN_ANOMALY": 256.9619,
    "EPHEMERIS_TYPE": 0,
    "CLASSIFICATION_TYPE": "U",
    "NORAD_CAT_ID": 54234,
    "ELEMENT_SET_NO": 999,
    "REV_AT_EPOCH": 19062,
    "BSTAR": 0.000030771068,
    "MEAN_MOTION_DOT": 2.1e-7,
    "MEAN_MOTION_DDOT": 0
   }
  },
  {
   "norad": 43619,
   "name": "NOVASAR 1",
   "intl": "2018-071B",
   "group": "sar",
   "gcat": {
    "class": "B",
    "category": "IMG",
    "owner": "SSTLA",
    "state": "UK"
   },
   "omm": {
    "OBJECT_NAME": "NOVASAR 1",
    "OBJECT_ID": "2018-071B",
    "EPOCH": "2026-07-15T22:39:55.500768",
    "MEAN_MOTION": 14.96272654,
    "ECCENTRICITY": 0.00019294,
    "INCLINATION": 97.5042,
    "RA_OF_ASC_NODE": 68.081,
    "ARG_OF_PERICENTER": 68.4672,
    "MEAN_ANOMALY": 291.6755,
    "EPHEMERIS_TYPE": 0,
    "CLASSIFICATION_TYPE": "U",
    "NORAD_CAT_ID": 43619,
    "ELEMENT_SET_NO": 999,
    "REV_AT_EPOCH": 42723,
    "BSTAR": 0.000037450411,
    "MEAN_MOTION_DOT": 0.00000368,
    "MEAN_MOTION_DDOT": 0
   }
  },
  {
   "norad": 35931,
   "name": "OCEANSAT-2",
   "intl": "2009-051A",
   "group": "resource",
   "gcat": {
    "class": null,
    "category": null,
    "owner": null,
    "state": null
   },
   "omm": {
    "OBJECT_NAME": "OCEANSAT-2",
    "OBJECT_ID": "2009-051A",
    "EPOCH": "2026-07-15T22:29:13.341408",
    "MEAN_MOTION": 13.99655986,
    "ECCENTRICITY": 0.00173893,
    "INCLINATION": 98.232,
    "RA_OF_ASC_NODE": 180.918,
    "ARG_OF_PERICENTER": 151.3516,
    "MEAN_ANOMALY": 208.861,
    "EPHEMERIS_TYPE": 0,
    "CLASSIFICATION_TYPE": "U",
    "NORAD_CAT_ID": 35931,
    "ELEMENT_SET_NO": 999,
    "REV_AT_EPOCH": 88335,
    "BSTAR": -0.000017631006,
    "MEAN_MOTION_DOT": -6.3e-7,
    "MEAN_MOTION_DDOT": 0
   }
  },
  {
   "norad": 59065,
   "name": "PARS 1",
   "intl": "2024-039Q",
   "group": "resource",
   "gcat": {
    "class": "C",
    "category": "IMG",
    "owner": "IRSA",
    "state": "IR"
   },
   "omm": {
    "OBJECT_NAME": "PARS 1",
    "OBJECT_ID": "2024-039Q",
    "EPOCH": "2026-07-15T22:08:33.778752",
    "MEAN_MOTION": 15.46299462,
    "ECCENTRICITY": 0.00096871,
    "INCLINATION": 97.4839,
    "RA_OF_ASC_NODE": 178.7627,
    "ARG_OF_PERICENTER": 24.6292,
    "MEAN_ANOMALY": 335.5417,
    "EPHEMERIS_TYPE": 0,
    "CLASSIFICATION_TYPE": "U",
    "NORAD_CAT_ID": 59065,
    "ELEMENT_SET_NO": 999,
    "REV_AT_EPOCH": 13308,
    "BSTAR": 0.00012999232,
    "MEAN_MOTION_DOT": 0.00006321,
    "MEAN_MOTION_DDOT": 0
   }
  },
  {
   "norad": 41787,
   "name": "PATHFINDER 1",
   "intl": "2016-059E",
   "group": "resource",
   "gcat": {
    "class": null,
    "category": null,
    "owner": null,
    "state": null
   },
   "omm": {
    "OBJECT_NAME": "PATHFINDER 1",
    "OBJECT_ID": "2016-059E",
    "EPOCH": "2026-07-15T23:24:02.741472",
    "MEAN_MOTION": 14.67693642,
    "ECCENTRICITY": 0.00298378,
    "INCLINATION": 97.8177,
    "RA_OF_ASC_NODE": 194.9535,
    "ARG_OF_PERICENTER": 113.3409,
    "MEAN_ANOMALY": 247.0941,
    "EPHEMERIS_TYPE": 0,
    "CLASSIFICATION_TYPE": "U",
    "NORAD_CAT_ID": 41787,
    "ELEMENT_SET_NO": 999,
    "REV_AT_EPOCH": 52393,
    "BSTAR": 0.000054440694,
    "MEAN_MOTION_DOT": 0.00000265,
    "MEAN_MOTION_DDOT": 0
   }
  },
  {
   "norad": 43215,
   "name": "PAZ",
   "intl": "2018-020A",
   "group": "sar",
   "gcat": {
    "class": "D",
    "category": "IMG-R",
    "owner": "HISD",
    "state": "E"
   },
   "omm": {
    "OBJECT_NAME": "PAZ",
    "OBJECT_ID": "2018-020A",
    "EPOCH": "2026-07-15T22:58:32.327904",
    "MEAN_MOTION": 15.19144554,
    "ECCENTRICITY": 0.00017025,
    "INCLINATION": 97.4456,
    "RA_OF_ASC_NODE": 203.9344,
    "ARG_OF_PERICENTER": 87.7543,
    "MEAN_ANOMALY": 272.3886,
    "EPHEMERIS_TYPE": 0,
    "CLASSIFICATION_TYPE": "U",
    "NORAD_CAT_ID": 43215,
    "ELEMENT_SET_NO": 999,
    "REV_AT_EPOCH": 46537,
    "BSTAR": 0.000049016045,
    "MEAN_MOTION_DOT": 0.00000962,
    "MEAN_MOTION_DDOT": 0
   }
  },
  {
   "norad": 38012,
   "name": "PLEIADES 1A",
   "intl": "2011-076F",
   "group": "resource",
   "gcat": {
    "class": null,
    "category": "IMG",
    "owner": "CNES/DGA",
    "state": "F"
   },
   "omm": {
    "OBJECT_NAME": "PLEIADES 1A",
    "OBJECT_ID": "2011-076F",
    "EPOCH": "2026-07-15T22:38:27.708000",
    "MEAN_MOTION": 14.58546526,
    "ECCENTRICITY": 0.00016691,
    "INCLINATION": 98.1974,
    "RA_OF_ASC_NODE": 271.6583,
    "ARG_OF_PERICENTER": 78.9308,
    "MEAN_ANOMALY": 8.1191,
    "EPHEMERIS_TYPE": 0,
    "CLASSIFICATION_TYPE": "U",
    "NORAD_CAT_ID": 38012,
    "ELEMENT_SET_NO": 999,
    "REV_AT_EPOCH": 77618,
    "BSTAR": 0.000011330372,
    "MEAN_MOTION_DOT": 7e-8,
    "MEAN_MOTION_DDOT": 0
   }
  },
  {
   "norad": 39019,
   "name": "PLEIADES 1B",
   "intl": "2012-068A",
   "group": "resource",
   "gcat": {
    "class": null,
    "category": "IMG",
    "owner": "CNES",
    "state": "F"
   },
   "omm": {
    "OBJECT_NAME": "PLEIADES 1B",
    "OBJECT_ID": "2012-068A",
    "EPOCH": "2026-07-15T23:03:32.110848",
    "MEAN_MOTION": 14.58533542,
    "ECCENTRICITY": 0.00015742,
    "INCLINATION": 98.1946,
    "RA_OF_ASC_NODE": 271.6146,
    "ARG_OF_PERICENTER": 78.9052,
    "MEAN_ANOMALY": 281.2324,
    "EPHEMERIS_TYPE": 0,
    "CLASSIFICATION_TYPE": "U",
    "NORAD_CAT_ID": 39019,
    "ELEMENT_SET_NO": 999,
    "REV_AT_EPOCH": 72504,
    "BSTAR": -0.000022265962,
    "MEAN_MOTION_DOT": -0.00000149,
    "MEAN_MOTION_DDOT": 0
   }
  },
  {
   "norad": 48268,
   "name": "PLEIADES NEO 3",
   "intl": "2021-034A",
   "group": "resource",
   "gcat": {
    "class": null,
    "category": "IMG",
    "owner": "ADSTI",
    "state": "F"
   },
   "omm": {
    "OBJECT_NAME": "PLEIADES NEO 3",
    "OBJECT_ID": "2021-034A",
    "EPOCH": "2026-07-15T22:54:24.111072",
    "MEAN_MOTION": 14.81666791,
    "ECCENTRICITY": 0.00013227,
    "INCLINATION": 97.8945,
    "RA_OF_ASC_NODE": 271.3069,
    "ARG_OF_PERICENTER": 94.748,
    "MEAN_ANOMALY": 265.3884,
    "EPHEMERIS_TYPE": 0,
    "CLASSIFICATION_TYPE": "U",
    "NORAD_CAT_ID": 48268,
    "ELEMENT_SET_NO": 999,
    "REV_AT_EPOCH": 28191,
    "BSTAR": -2.42025e-7,
    "MEAN_MOTION_DOT": -5.4e-7,
    "MEAN_MOTION_DDOT": 0
   }
  },
  {
   "norad": 49070,
   "name": "PLEIADES NEO 4",
   "intl": "2021-073E",
   "group": "resource",
   "gcat": {
    "class": null,
    "category": "IMG",
    "owner": "ADSTI",
    "state": "F"
   },
   "omm": {
    "OBJECT_NAME": "PLEIADES NEO 4",
    "OBJECT_ID": "2021-073E",
    "EPOCH": "2026-07-15T22:05:46.008096",
    "MEAN_MOTION": 14.81674001,
    "ECCENTRICITY": 0.00013648,
    "INCLINATION": 97.8944,
    "RA_OF_ASC_NODE": 271.2698,
    "ARG_OF_PERICENTER": 92.0813,
    "MEAN_ANOMALY": 268.0557,
    "EPHEMERIS_TYPE": 0,
    "CLASSIFICATION_TYPE": "U",
    "NORAD_CAT_ID": 49070,
    "ELEMENT_SET_NO": 999,
    "REV_AT_EPOCH": 26562,
    "BSTAR": 0.000086254388,
    "MEAN_MOTION_DOT": 0.00000627,
    "MEAN_MOTION_DDOT": 0
   }
  }
 ]
}
