OCEANSAT-2              
1 35931U 09051A   26196.93695997 -.00000063  00000+0 -17631-4 0  9999
2 35931  98.2320 180.9180 0017389 151.3516 208.8610 13.99655986883357
PLEIADES 1A             
1 38012U 11076F   26196.94337625  .00000007  00000+0  11330-4 0  9990
2 38012  98.1974 271.6583 0001669  78.9308   8.1191 14.58546526776188
PLEIADES 1B             
1 39019U 12068A   26196.96078832 -.00000149  00000+0 -22266-4 0  9993
2 39019  98.1946 271.6146 0001574  78.9052 281.2324 14.58533542725046
PATHFINDER 1            
1 41787U 16059E   26196.97503173  .00000265  00000+0  54441-4 0  9991
2 41787  97.8177 194.9535 0029837 113.3409 247.0941 14.67693642523931
PAZ                     
1 43215U 18020A   26196.95731861  .00000962  00000+0  49016-4 0  9990
2 43215  97.4456 203.9344 0001702  87.7543 272.3886 15.19144554465371
NOVASAR 1               
1 43619U 18071B   26196.94439237  .00000368  00000+0  37450-4 0  9994
2 43619  97.5042  68.0810 0001929  68.4672 291.6755 14.96272654427238
PLEIADES NEO 3          
1 48268U 21034A   26196.95444573 -.00000054  00000+0 -24203-6 0  9990
2 48268  97.8945 271.3069 0001322  94.7480 265.3884 14.81666791281916
PLEIADES NEO 4          
1 49070U 21073E   26196.92067139  .00000627  00000+0  86254-4 0  9997
2 49070  97.8944 271.2698 0001364  92.0813 268.0557 14.81674001265621
NOAA 21 (JPSS-2)        
1 54234U 22150A   26196.93298557  .00000021  00000+0  30771-4 0  9994
2 54234  98.7059 135.2394 0002838 103.1874 256.9619 14.19541138190623
PARS 1                  
1 59065U 24039Q   26196.92261318  .00006321  00000+0  12999-3 0  9993
2 59065  97.4839 178.7627 0009687  24.6292 335.5417 15.46299462133081
